[{"OBJECT_NAME":"PROTOMETHEE","OBJECT_ID":"2023-174BT","EPOCH":"2026-03-09T23:28:08.029344","MEAN_MOTION":15.30202663,"ECCENTRICITY":0.00088339,"INCLINATION":97.3826,"RA_OF_ASC_NODE":147.9552,"ARG_OF_PERICENTER":148.5993,"MEAN_ANOMALY":211.5776,"EPHEMERIS_TYPE":0,"CLASSIFICATION_TYPE":"U","NORAD_CAT_ID":58321,"ELEMENT_SET_NO":999,"REV_AT_EPOCH":12979,"BSTAR":0.00015715731,"MEAN_MOTION_DOT":4.52e-5,"MEAN_MOTION_DDOT":0},{"OBJECT_NAME":"STARLINK-35944","OBJECT_ID":"2025-286D","EPOCH":"2026-03-09T22:53:36.449376","MEAN_MOTION":15.30228299,"ECCENTRICITY":8.733e-5,"INCLINATION":53.1605,"RA_OF_ASC_NODE":357.4787,"ARG_OF_PERICENTER":91.1296,"MEAN_ANOMALY":268.9804,"EPHEMERIS_TYPE":0,"CLASSIFICATION_TYPE":"U","NORAD_CAT_ID":66928,"ELEMENT_SET_NO":999,"REV_AT_EPOCH":1545,"BSTAR":0.0015069631,"MEAN_MOTION_DOT":0.0004458,"MEAN_MOTION_DDOT":0}]
